[{"OBJECT_NAME":"STARLINK-5241","OBJECT_ID":"2022-141AZ","EPOCH":"2026-03-09T22:51:32.574240","MEAN_MOTION":15.08833711,"ECCENTRICITY":0.0001412,"INCLINATION":53.2197,"RA_OF_ASC_NODE":352.5097,"ARG_OF_PERICENTER":104.364,"MEAN_ANOMALY":255.751,"EPHEMERIS_TYPE":0,"CLASSIFICATION_TYPE":"U","NORAD_CAT_ID":54204,"ELEMENT_SET_NO":999,"REV_AT_EPOCH":18604,"BSTAR":-1.7510616e-5,"MEAN_MOTION_DOT":-5.67e-6,"MEAN_MOTION_DDOT":0},{"OBJECT_NAME":"OBJECT BE","OBJECT_ID":"2018-099BE","EPOCH":"2026-03-09T15:10:24.322944","MEAN_MOTION":15.09972337,"ECCENTRICITY":0.0006427,"INCLINATION":97.4031,"RA_OF_ASC_NODE":111.7891,"ARG_OF_PERICENTER":340.4925,"MEAN_ANOMALY":19.6058,"EPHEMERIS_TYPE":0,"CLASSIFICATION_TYPE":"U","NORAD_CAT_ID":43810,"ELEMENT_SET_NO":999,"REV_AT_EPOCH":39698,"BSTAR":0.00027209,"MEAN_MOTION_DOT":4.358e-5,"MEAN_MOTION_DDOT":0}]
